[{"OBJECT_NAME":"IRIDIUM 180","OBJECT_ID":"2019-002A","EPOCH":"2026-03-09T22:12:10.971936","MEAN_MOTION":14.34217842,"ECCENTRICITY":0.00022889,"INCLINATION":86.3973,"RA_OF_ASC_NODE":35.0663,"ARG_OF_PERICENTER":84.9653,"MEAN_ANOMALY":275.1804,"EPHEMERIS_TYPE":0,"CLASSIFICATION_TYPE":"U","NORAD_CAT_ID":43922,"ELEMENT_SET_NO":999,"REV_AT_EPOCH":37476,"BSTAR":6.536861e-6,"MEAN_MOTION_DOT":3.8e-7,"MEAN_MOTION_DDOT":0},{"OBJECT_NAME":"COSMOS 676","OBJECT_ID":"1974-071A","EPOCH":"2026-03-09T22:01:11.064288","MEAN_MOTION":14.33501445,"ECCENTRICITY":0.00133113,"INCLINATION":74.0466,"RA_OF_ASC_NODE":284.4069,"ARG_OF_PERICENTER":159.8939,"MEAN_ANOMALY":200.274,"EPHEMERIS_TYPE":0,"CLASSIFICATION_TYPE":"U","NORAD_CAT_ID":7433,"ELEMENT_SET_NO":999,"REV_AT_EPOCH":68862,"BSTAR":5.264421e-5,"MEAN_MOTION_DOT":1.2e-6,"MEAN_MOTION_DDOT":0}]
